SL-4 R/B                
1 39679U 14021B   26057.32999285  .00017636  00000+0  39203-3 0  9991
2 39679  51.6075  32.6783 0098383  61.5672 299.5183 15.38746218654521
ALOS-2                  
1 39766U 14029A   26057.89761484  .00003075  00000+0  41864-3 0  9994
2 39766  97.9197 156.6511 0001540  98.0456 262.0930 14.79454039635273
YAOGAN-29               
1 41038U 15069A   26057.93141345 -.00000097  00000+0 -52688-5 0  9998
2 41038  98.0166  86.3320 0002506  54.3594 305.7853 14.82979961554284
ASTRO-H (HITOMI)        
1 41337U 16012A   26057.33018664  .00003538  00000+0  20708-3 0  9997
2 41337  30.9998  69.8468 0009972 218.4731 141.5196 15.09909634550511
HXMT (HUIYAN)           
1 42758U 17034A   26057.91633606  .00005851  00000+0  29627-3 0  9992
2 42758  43.0146  76.5606 0031564 168.8762 191.2790 15.17303394480909
CZ-2C R/B               
1 43521U 18054D   26057.59812252  .02494089  14459-5  89793-3 0  9990
2 43521  35.1226  15.5108 0010105 214.3829 145.6266 16.23614081427120
SAOCOM 1A               
1 43641U 18076A   26057.95883720  .00001239  00000+0  16217-3 0  9996
2 43641  97.8891 246.2827 0001349  81.4376 278.6990 14.82158046399774
H-2A R/B                
1 43682U 18084L   26057.62973930  .00022139  00000+0  53566-3 0  9997
2 43682  98.8750 272.6576 0026164  62.6341 297.7559 15.40805915404075
SAOCOM 1B               
1 46265U 20059A   26057.92256372  .00000359  00000+0  51622-4 0  9991
2 46265  97.8888 245.3448 0001465  83.7464 276.3916 14.82158056297159
CSS (TIANHE)            
1 48274U 21035A   26057.89908531  .00028060  00000+0  33801-3 0  9992
2 48274  41.4662 273.7945 0005888 204.9081 155.1474 15.60152578275922
COSMOS 2550             
1 48865U 21056A   26058.01891062 -.00000185  00000+0  20873-6 0  9993
2 48865  67.1413  73.2091 0008365 269.5411  90.4785 15.33828010261820
CZ-2C R/B               
1 52794U 22058K   26057.90114107  .00030709  00000+0  46369-3 0  9996
2 52794  50.1895  13.7493 0042087 154.7503 205.5536 15.53394572208459
