CCSDS_OMM_VERS = 2.0
CREATION_DATE  = 
ORIGINATOR     = 

OBJECT_NAME    = SL-4 R/B
OBJECT_ID      = 2014-021B
CENTER_NAME    = EARTH
REF_FRAME      = TEME
TIME_SYSTEM    = UTC
MEAN_ELEMENT_THEORY = SGP/SGP4

EPOCH          = 2026-02-26T07:55:11.382240
MEAN_MOTION    = 15.38746218
ECCENTRICITY   = .0098383
INCLINATION    = 51.6075
RA_OF_ASC_NODE = 32.6783
ARG_OF_PERICENTER = 61.5672
MEAN_ANOMALY   = 299.5183

EPHEMERIS_TYPE = 0
CLASSIFICATION_TYPE = U
NORAD_CAT_ID   = 39679
ELEMENT_SET_NO = 999
REV_AT_EPOCH   = 65452
BSTAR          = .39203E-3
MEAN_MOTION_DOT = .17636E-3
MEAN_MOTION_DDOT = 0

CCSDS_OMM_VERS = 2.0
CREATION_DATE  = 
ORIGINATOR     = 

OBJECT_NAME    = ALOS-2
OBJECT_ID      = 2014-029A
CENTER_NAME    = EARTH
REF_FRAME      = TEME
TIME_SYSTEM    = UTC
MEAN_ELEMENT_THEORY = SGP/SGP4

EPOCH          = 2026-02-26T21:32:33.922176
MEAN_MOTION    = 14.79454039
ECCENTRICITY   = .00015401
INCLINATION    = 97.9197
RA_OF_ASC_NODE = 156.6511
ARG_OF_PERICENTER = 98.0456
MEAN_ANOMALY   = 262.0930

EPHEMERIS_TYPE = 0
CLASSIFICATION_TYPE = U
NORAD_CAT_ID   = 39766
ELEMENT_SET_NO = 999
REV_AT_EPOCH   = 63527
BSTAR          = .41863684E-3
MEAN_MOTION_DOT = .3075E-4
MEAN_MOTION_DDOT = 0

CCSDS_OMM_VERS = 2.0
CREATION_DATE  = 
ORIGINATOR     = 

OBJECT_NAME    = YAOGAN-29
OBJECT_ID      = 2015-069A
CENTER_NAME    = EARTH
REF_FRAME      = TEME
TIME_SYSTEM    = UTC
MEAN_ELEMENT_THEORY = SGP/SGP4

EPOCH          = 2026-02-26T22:21:14.122080
MEAN_MOTION    = 14.82979961
ECCENTRICITY   = .00025061
INCLINATION    = 98.0166
RA_OF_ASC_NODE = 86.3320
ARG_OF_PERICENTER = 54.3594
MEAN_ANOMALY   = 305.7853

EPHEMERIS_TYPE = 0
CLASSIFICATION_TYPE = U
NORAD_CAT_ID   = 41038
ELEMENT_SET_NO = 999
REV_AT_EPOCH   = 55428
BSTAR          = -.5268842E-5
MEAN_MOTION_DOT = -.97E-6
MEAN_MOTION_DDOT = 0

CCSDS_OMM_VERS = 2.0
CREATION_DATE  = 
ORIGINATOR     = 

OBJECT_NAME    = ASTRO-H (HITOMI)
OBJECT_ID      = 2016-012A
CENTER_NAME    = EARTH
REF_FRAME      = TEME
TIME_SYSTEM    = UTC
MEAN_ELEMENT_THEORY = SGP/SGP4

EPOCH          = 2026-02-26T07:55:28.125696
MEAN_MOTION    = 15.09909634
ECCENTRICITY   = .00099725
INCLINATION    = 30.9998
RA_OF_ASC_NODE = 69.8468
ARG_OF_PERICENTER = 218.4731
MEAN_ANOMALY   = 141.5196

EPHEMERIS_TYPE = 0
CLASSIFICATION_TYPE = U
NORAD_CAT_ID   = 41337
ELEMENT_SET_NO = 999
REV_AT_EPOCH   = 55051
BSTAR          = .20707684E-3
MEAN_MOTION_DOT = .3538E-4
MEAN_MOTION_DDOT = 0

CCSDS_OMM_VERS = 2.0
CREATION_DATE  = 
ORIGINATOR     = 

OBJECT_NAME    = HXMT (HUIYAN)
OBJECT_ID      = 2017-034A
CENTER_NAME    = EARTH
REF_FRAME      = TEME
TIME_SYSTEM    = UTC
MEAN_ELEMENT_THEORY = SGP/SGP4

EPOCH          = 2026-02-26T21:59:31.435584
MEAN_MOTION    = 15.17303394
ECCENTRICITY   = .00315649
INCLINATION    = 43.0146
RA_OF_ASC_NODE = 76.5606
ARG_OF_PERICENTER = 168.8762
MEAN_ANOMALY   = 191.2790

EPHEMERIS_TYPE = 0
CLASSIFICATION_TYPE = U
NORAD_CAT_ID   = 42758
ELEMENT_SET_NO = 999
REV_AT_EPOCH   = 48090
BSTAR          = .29627084E-3
MEAN_MOTION_DOT = .5851E-4
MEAN_MOTION_DDOT = 0

CCSDS_OMM_VERS = 2.0
CREATION_DATE  = 
ORIGINATOR     = 

OBJECT_NAME    = CZ-2C R/B
OBJECT_ID      = 2018-054D
CENTER_NAME    = EARTH
REF_FRAME      = TEME
TIME_SYSTEM    = UTC
MEAN_ELEMENT_THEORY = SGP/SGP4

EPOCH          = 2026-02-26T14:21:17.785728
MEAN_MOTION    = 16.23614081
ECCENTRICITY   = .00101059
INCLINATION    = 35.1226
RA_OF_ASC_NODE = 15.5108
ARG_OF_PERICENTER = 214.3829
MEAN_ANOMALY   = 145.6266

EPHEMERIS_TYPE = 0
CLASSIFICATION_TYPE = U
NORAD_CAT_ID   = 43521
ELEMENT_SET_NO = 999
REV_AT_EPOCH   = 42712
BSTAR          = .8979291E-3
MEAN_MOTION_DOT = .2494089E-1
MEAN_MOTION_DDOT = .144588E-5

CCSDS_OMM_VERS = 2.0
CREATION_DATE  = 
ORIGINATOR     = 

OBJECT_NAME    = SAOCOM 1A
OBJECT_ID      = 2018-076A
CENTER_NAME    = EARTH
REF_FRAME      = TEME
TIME_SYSTEM    = UTC
MEAN_ELEMENT_THEORY = SGP/SGP4

EPOCH          = 2026-02-26T23:00:43.534080
MEAN_MOTION    = 14.82158046
ECCENTRICITY   = .00013491
INCLINATION    = 97.8891
RA_OF_ASC_NODE = 246.2827
ARG_OF_PERICENTER = 81.4376
MEAN_ANOMALY   = 278.6990

EPHEMERIS_TYPE = 0
CLASSIFICATION_TYPE = U
NORAD_CAT_ID   = 43641
ELEMENT_SET_NO = 999
REV_AT_EPOCH   = 39977
BSTAR          = .1621744E-3
MEAN_MOTION_DOT = .1239E-4
MEAN_MOTION_DDOT = 0

CCSDS_OMM_VERS = 2.0
CREATION_DATE  = 
ORIGINATOR     = 

OBJECT_NAME    = H-2A R/B
OBJECT_ID      = 2018-084L
CENTER_NAME    = EARTH
REF_FRAME      = TEME
TIME_SYSTEM    = UTC
MEAN_ELEMENT_THEORY = SGP/SGP4

EPOCH          = 2026-02-26T15:06:49.475520
MEAN_MOTION    = 15.40805915
ECCENTRICITY   = .00261644
INCLINATION    = 98.8750
RA_OF_ASC_NODE = 272.6576
ARG_OF_PERICENTER = 62.6341
MEAN_ANOMALY   = 297.7559

EPHEMERIS_TYPE = 0
CLASSIFICATION_TYPE = U
NORAD_CAT_ID   = 43682
ELEMENT_SET_NO = 999
REV_AT_EPOCH   = 40407
BSTAR          = .53565632E-3
MEAN_MOTION_DOT = .22139E-3
MEAN_MOTION_DDOT = 0

CCSDS_OMM_VERS = 2.0
CREATION_DATE  = 
ORIGINATOR     = 

OBJECT_NAME    = SAOCOM 1B
OBJECT_ID      = 2020-059A
CENTER_NAME    = EARTH
REF_FRAME      = TEME
TIME_SYSTEM    = UTC
MEAN_ELEMENT_THEORY = SGP/SGP4

EPOCH          = 2026-02-26T22:08:29.505408
MEAN_MOTION    = 14.82158056
ECCENTRICITY   = .00014657
INCLINATION    = 97.8888
RA_OF_ASC_NODE = 245.3448
ARG_OF_PERICENTER = 83.7464
MEAN_ANOMALY   = 276.3916

EPHEMERIS_TYPE = 0
CLASSIFICATION_TYPE = U
NORAD_CAT_ID   = 46265
ELEMENT_SET_NO = 999
REV_AT_EPOCH   = 29715
BSTAR          = .51621959E-4
MEAN_MOTION_DOT = .359E-5
MEAN_MOTION_DDOT = 0

CCSDS_OMM_VERS = 2.0
CREATION_DATE  = 
ORIGINATOR     = 

OBJECT_NAME    = CSS (TIANHE)
OBJECT_ID      = 2021-035A
CENTER_NAME    = EARTH
REF_FRAME      = TEME
TIME_SYSTEM    = UTC
MEAN_ELEMENT_THEORY = SGP/SGP4

EPOCH          = 2026-02-26T21:34:40.970784
MEAN_MOTION    = 15.60152578
ECCENTRICITY   = .00058887
INCLINATION    = 41.4662
RA_OF_ASC_NODE = 273.7945
ARG_OF_PERICENTER = 204.9081
MEAN_ANOMALY   = 155.1474

EPHEMERIS_TYPE = 0
CLASSIFICATION_TYPE = U
NORAD_CAT_ID   = 48274
ELEMENT_SET_NO = 999
REV_AT_EPOCH   = 27592
BSTAR          = .33800613E-3
MEAN_MOTION_DOT = .2806E-3
MEAN_MOTION_DDOT = 0

CCSDS_OMM_VERS = 2.0
CREATION_DATE  = 
ORIGINATOR     = 

OBJECT_NAME    = COSMOS 2550
OBJECT_ID      = 2021-056A
CENTER_NAME    = EARTH
REF_FRAME      = TEME
TIME_SYSTEM    = UTC
MEAN_ELEMENT_THEORY = SGP/SGP4

EPOCH          = 2026-02-27T00:27:13.877568
MEAN_MOTION    = 15.33828010
ECCENTRICITY   = .0008365
INCLINATION    = 67.1413
RA_OF_ASC_NODE = 73.2091
ARG_OF_PERICENTER = 269.5411
MEAN_ANOMALY   = 90.4785

EPHEMERIS_TYPE = 0
CLASSIFICATION_TYPE = U
NORAD_CAT_ID   = 48865
ELEMENT_SET_NO = 999
REV_AT_EPOCH   = 26182
BSTAR          = .20873E-6
MEAN_MOTION_DOT = -.185E-5
MEAN_MOTION_DDOT = 0

CCSDS_OMM_VERS = 2.0
CREATION_DATE  = 
ORIGINATOR     = 

OBJECT_NAME    = CZ-2C R/B
OBJECT_ID      = 2022-058K
CENTER_NAME    = EARTH
REF_FRAME      = TEME
TIME_SYSTEM    = UTC
MEAN_ELEMENT_THEORY = SGP/SGP4

EPOCH          = 2026-02-26T21:37:38.588448
MEAN_MOTION    = 15.53394572
ECCENTRICITY   = .0042087
INCLINATION    = 50.1895
RA_OF_ASC_NODE = 13.7493
ARG_OF_PERICENTER = 154.7503
MEAN_ANOMALY   = 205.5536

EPHEMERIS_TYPE = 0
CLASSIFICATION_TYPE = U
NORAD_CAT_ID   = 52794
ELEMENT_SET_NO = 999
REV_AT_EPOCH   = 20845
BSTAR          = .46368533E-3
MEAN_MOTION_DOT = .30709E-3
MEAN_MOTION_DDOT = 0

